STARLINK-32577          
1 62044U 24216N   26068.95112023  .00022907  00000+0  83936-3 0  9997
2 62044  43.0014 261.9382 0002100 264.7275  95.3337 15.27579015 73841
KUIPER-00226            
1 67785U 26030X   26068.62629313  .00046834  00000+0  15530-2 0  9998
2 67785  51.8814 220.1252 0017713  64.2781 296.0030 15.30655594  5078
