[{"OBJECT_NAME":"STARLINK-32577","OBJECT_ID":"2024-216N","EPOCH":"2026-03-09T22:49:36.788736","MEAN_MOTION":15.27579015,"ECCENTRICITY":0.00020997,"INCLINATION":43.0014,"RA_OF_ASC_NODE":261.9382,"ARG_OF_PERICENTER":264.7275,"MEAN_ANOMALY":95.3337,"EPHEMERIS_TYPE":0,"CLASSIFICATION_TYPE":"U","NORAD_CAT_ID":62044,"ELEMENT_SET_NO":999,"REV_AT_EPOCH":7384,"BSTAR":0.00083935522,"MEAN_MOTION_DOT":0.00022907,"MEAN_MOTION_DDOT":0},{"OBJECT_NAME":"KUIPER-00226","OBJECT_ID":"2026-030X","EPOCH":"2026-03-09T15:01:51.726432","MEAN_MOTION":15.30655594,"ECCENTRICITY":0.0017713,"INCLINATION":51.8814,"RA_OF_ASC_NODE":220.1252,"ARG_OF_PERICENTER":64.2781,"MEAN_ANOMALY":296.003,"EPHEMERIS_TYPE":0,"CLASSIFICATION_TYPE":"U","NORAD_CAT_ID":67785,"ELEMENT_SET_NO":999,"REV_AT_EPOCH":507,"BSTAR":0.001553,"MEAN_MOTION_DOT":0.00046834,"MEAN_MOTION_DDOT":0}]
